[{"OBJECT_NAME":"CHUANGXIN 1-03 (CX-1-03)","OBJECT_ID":"2011-068A","EPOCH":"2026-03-09T23:48:05.343264","MEAN_MOTION":14.30514213,"ECCENTRICITY":0.00158467,"INCLINATION":98.7066,"RA_OF_ASC_NODE":86.521,"ARG_OF_PERICENTER":50.1728,"MEAN_ANOMALY":9.9604,"EPHEMERIS_TYPE":0,"CLASSIFICATION_TYPE":"U","NORAD_CAT_ID":37930,"ELEMENT_SET_NO":999,"REV_AT_EPOCH":74647,"BSTAR":-1.9220958e-5,"MEAN_MOTION_DOT":-9.5e-7,"MEAN_MOTION_DDOT":0},{"OBJECT_NAME":"FENGYUN 1C DEB","OBJECT_ID":"1999-025VA","EPOCH":"2026-03-09T18:19:21.135648","MEAN_MOTION":14.49888116,"ECCENTRICITY":0.01042723,"INCLINATION":98.7545,"RA_OF_ASC_NODE":345.303,"ARG_OF_PERICENTER":230.8884,"MEAN_ANOMALY":188.7746,"EPHEMERIS_TYPE":0,"CLASSIFICATION_TYPE":"U","NORAD_CAT_ID":30193,"ELEMENT_SET_NO":999,"REV_AT_EPOCH":428,"BSTAR":0.00080094212,"MEAN_MOTION_DOT":3.265e-5,"MEAN_MOTION_DDOT":0}]
